GSAT-7A                 
1 43864U 18105A   21319.51511500  .00000028  00000-0  00000-0 0  9994
2 43864   0.0306 272.6699 0003188 311.6919  78.7134  1.00270817 10677
COSMOS 2533             
1 43867U 18107A   21319.54541244 -.00000037  00000-0  00000-0 0  9991
2 43867   0.0420 114.0954 0000180 299.9401 267.1709  1.00272316 10626
TJS-3                   
1 43874U 18110A   21319.54211241  .00000058  00000-0  00000-0 0  9996
2 43874   0.0780  86.4497 0000876 157.4856  65.0633  1.00275432 10624
TJS-3 AKM               
1 43917U 18110C   21319.54211241  .00000057  00000-0  00000-0 0  9993
2 43917   0.0796 106.4520 0006790 100.5737 102.1602  1.00271287 10574
CHINASAT 2D (ZX 2D)     
1 43920U 19001A   21319.60457977 -.00000335  00000-0  00000-0 0  9992
2 43920   0.0252  25.6301 0001545 333.5345  43.4023  1.00269484 10569
HELLAS-SAT 4 & SGS-1    
1 44034U 19007A   21319.51040522  .00000154  00000-0  00000-0 0  9997
2 44034   0.0656 119.2408 0005244  53.6275 104.6986  1.00272190 10560
GSAT-31                 
1 44035U 19007B   21319.51214958  .00000127  00000-0  00000-0 0  9994
2 44035   0.0467 273.8136 0005436 325.6066  47.6702  1.00270239 10181
NUSANTARA SATU          
1 44048U 19009A   21319.53168646 -.00000233  00000-0  00000-0 0  9993
2 44048   0.0113 308.6516 0002008 281.5588 162.0546  1.00271190  9962
CHINASAT 6C (ZX 6C)     
1 44067U 19012A   21315.98591558 -.00000345  00000-0  00000-0 0  9999
2 44067   0.0480 269.4971 0003505  11.8587 254.8926  1.00266499  9907
WGS 10 (USA 291)        
1 44071U 19014A   21319.62600736  .00000049  00000-0  00000-0 0  9990
2 44071   0.0055  88.6923 0001762 223.1775  28.7315  1.00268295  9836
TIANLIAN 2-01           
1 44076U 19017A   21319.59029714 -.00000136  00000-0  00000-0 0  9993
2 44076   0.7603 282.2739 0032550 229.6494 195.5547  1.00271888  9812
ARABSAT-6A              
1 44186U 19021A   21319.58044149  .00000155  00000-0  00000-0 0  9998
2 44186   0.0506 322.4415 0007041 292.6236  39.3041  1.00270525  9370
BEIDOU-3 IGSO-1         
1 44204U 19023A   21313.68799635 -.00000229  00000-0  00000-0 0  9996
2 44204  56.2348  55.3445 0023221 187.9785 172.6153  1.00277510  9518
BEIDOU-2 G8             
1 44231U 19027A   21318.52827311 -.00000251  00000-0  00000-0 0  9996
2 44231   0.3869  52.8931 0007217 155.5204 180.0106  1.00265912  9279
YAMAL 601               
1 44307U 19031A   21319.02676843  .00000119  00000-0  00000-0 0  9995
2 44307   0.0005 304.3781 0002109 278.1372 250.4757  1.00273057  9131
AT&T T-16               
1 44333U 19034A   21319.53097977 -.00000113  00000-0  00000-0 0  9993
2 44333   0.0212 286.9722 0000178 229.0511 349.1274  1.00269369  8842
EUTELSAT 7C             
1 44334U 19034B   21319.28869638  .00000049  00000-0  00000-0 0  9994
2 44334   0.0335 259.2156 0003198 315.1967 311.1329  1.00271532  9318
BEIDOU-3 IGSO-2         
1 44337U 19035A   21318.50049523 -.00000077  00000-0  00000+0 0  9996
2 44337  55.0982 173.6491 0020466 178.0814   1.6000  1.00266498  8898
COSMOS 2539             
1 44457U 19048A   21319.57677832  .00000083  00000-0  00000-0 0  9998
2 44457   0.0523  91.9191 0000715 287.9909 254.6212  1.00272380  8433
EDRS-C                  
1 44475U 19049A   21318.76314478  .00000153  00000-0  00000-0 0  9991
2 44475   0.0511 270.7332 0000784 322.0826 127.1986  1.00273205  8405
INTELSAT 39 (IS-39)     
1 44476U 19049B   21319.51494057  .00000035  00000-0  00000-0 0  9997
2 44476   0.0169 289.2915 0000380 221.5133 151.3528  1.00271396  8368
AMOS-17                 
1 44479U 19050A   21319.57773772  .00000111  00000-0  00000-0 0  9997
2 44479   0.0408  82.3494 0002157 150.9381  46.5811  1.00272383  8395
AEHF-5 (USA 292)        
1 44481U 19051A   21319.51354507  .00000078  00000-0  00000-0 0  9998
2 44481   4.8627 305.2663 0003857 270.0374  78.9101  1.00270235  8476
EUTELSAT 5 WEST B       
1 44624U 19067A   21319.57337681 -.00000040  00000-0  00000-0 0  9994
2 44624   0.0722  27.2484 0004312 125.3111 103.7511  1.00271250  7658
MEV-1                   
1 44625U 19067B   21319.42536741 -.00000201  00000-0  00000-0 0  9996
2 44625   0.0164  54.9309 0000953 175.4923 309.9363  1.00266354 74799
TJS-4                   
1 44637U 19070A   21319.54601433 -.00000169  00000-0  00000-0 0  9990
2 44637   0.0282 356.6786 0000242 231.0123 107.2802  1.00271833  7764
BEIDOU-3 IGSO-3         
1 44709U 19073A   21319.59051642 -.00000193  00000-0  00000-0 0  9996
2 44709  57.6060 298.5980 0019471 187.2328 261.6724  1.00271646  7668
TIBA-1                  
1 44800U 19080A   21319.58148810  .00000157  00000-0  00000-0 0  9998
2 44800   0.0592 339.9566 0001943 241.7172  78.0687  1.00271749  7268
INMARSAT GX5            
1 44801U 19080B   21319.57660389  .00000076  00000-0  00000-0 0  9998
2 44801   0.0398   4.7429 0001959 225.8862  42.8245  1.00270396  7316
JCSAT-18 (KACIFIC 1)    
1 44868U 19091A   21319.38899740 -.00000199  00000-0  00000-0 0  9994
2 44868   0.0140 265.0275 0000885 344.0185  95.6966  1.00272869  7227
ELEKTRO-L 3             
1 44903U 19095A   21319.51773156 -.00000094  00000-0  00000-0 0  9999
2 44903   0.0495 224.8639 0001711  29.9325  62.3988  1.00268794  6924
SHIJIAN-20 (SJ-20)      
1 44910U 19097A   21319.54571338 -.00000206  00000-0  00000-0 0  9995
2 44910   0.6331  93.4024 0001544 152.9746  92.5951  1.00269773  6904
TJS-5                   
1 44978U 20002A   21319.60674446 -.00000341  00000-0  00000-0 0  9998
2 44978   0.1721 287.6707 0005254 242.1988 211.0023  1.00273184  6913
GSAT-30                 
1 45026U 20005A   21319.54601433 -.00000164  00000-0  00000-0 0  9998
2 45026   0.0214 265.8514 0002645 232.2082 196.4199  1.00271472  6721
EUTELSAT KONNECT        
1 45027U 20005B   21319.57581891  .00000052  00000-0  00000-0 0  9992
2 45027   0.0529 100.0033 0000606  88.7525  80.6601  1.00272782  7546
JCSAT-17                
1 45245U 20013A   21318.42960688 -.00000329  00000-0  00000-0 0  9999
2 45245   6.3672 344.5813 0002802 249.9926 109.8561  1.00273191  6434
GEO-KOMPSAT-2B          
1 45246U 20013B   21319.52063209 -.00000342  00000-0  00000-0 0  9990
2 45246   0.0494  92.5967 0000803  56.2178 221.7313  1.00271332  6473
BEIDOU-3 G2             
1 45344U 20017A   21319.51860373 -.00000144  00000-0  00000-0 0  9999
2 45344   2.2533 342.3532 0002159 195.9065 143.3021  1.00271002  6464
AEHF-6 (USA 298)        
1 45465U 20022B   21319.47797928 -.00000307  00000-0  00000-0 0  9990
2 45465   6.4409 304.6802 0050154 350.7431  69.1967  1.00270374  6222
BEIDOU-3 G3             
1 45807U 20040A   21319.59648964 -.00000354  00000-0  00000-0 0  9990
2 45807   1.9352 299.5684 0009839 341.3216  99.2849  1.00273878  5291
APSTAR 6D               
1 45863U 20045A   21319.17042844 -.00000317  00000-0  00000-0 0  9995
2 45863   0.0549  97.1227 0001735 100.3686  52.3902  1.00270620  5064
KOREASAT 116            
1 45920U 20048A   21319.54791390 -.00000360  00000-0  00000-0 0  9998
2 45920   0.0136 309.2320 0000819 287.7463 131.3403  1.00267555  4848
EXPRESS 103             
1 45985U 20053A   21318.57078855 -.00000282  00000-0  00000+0 0  9993
2 45985   0.0065  90.1257 0000539 178.2082  87.5334  1.00269474  4831
EXPRESS 80              
1 45986U 20053B   21319.37504247 -.00000135  00000-0  00000-0 0  9990
2 45986   0.0026 318.8539 0000756  34.4371 276.4084  1.00270516  4848
BSAT-4B                 
1 46112U 20056A   21319.54406988 -.00000348  00000-0  00000-0 0  9993
2 46112   0.1012 107.2193 0002652  75.6588 177.6784  1.00270011  4597
MEV-2                   
1 46113U 20056B   21318.86646494 -.00000012  00000-0  00000-0 0  9994
2 46113   0.0220  74.9449 0001235 160.6165 129.5336  1.00270455 63747
GALAXY 30 (G-30)        
1 46114U 20056C   21319.52831267  .00000039  00000-0  00000-0 0  9991
2 46114   0.0169 281.8040 0002214 305.8654 252.3453  1.00270726  4505
GAOFEN 13               
1 46610U 20071A   21319.47964052 -.00000362  00000-0  00000-0 0  9992
2 46610   1.0298 275.5936 0002745 263.2926 166.4101  1.00269707  4122
TIANTONG-1 2            
1 46916U 20082A   21319.47765150 -.00000361  00000-0  00000-0 0  9990
2 46916   4.6419 297.1366 0001931 320.8259  93.6881  1.00269442  3869
LUCAS (JDRS-1)          
1 47202U 20089A   21319.52069698 -.00000234  00000-0  00000-0 0  9995
2 47202   0.0420 113.2109 0002444 127.6480  92.1743  1.00274607  3615
SXM-7                   
1 47240U 20096A   21319.55139780 -.00000020  00000-0  00000-0 0  9991
2 47240   0.0169 289.6466 0000779  99.1803 109.2242  1.00270194  3534
CMS-01                  
1 47256U 20099A   21319.54601433 -.00000163  00000-0  00000-0 0  9997
2 47256   0.0103 257.5618 0008035   0.6889  76.2039  1.00269625  3406
TURKSAT 5A              
1 47306U 21001A   21319.58052870  .00000156  00000-0  00000-0 0  9997
2 47306   0.0023  58.8477 0000306 244.6938 351.2610  1.00272084  3185
TIANTONG-1 3            
1 47321U 21003A   21319.59064602 -.00000161  00000-0  00000-0 0  9990
2 47321   4.8983 308.7290 0003758 289.9331 110.4009  1.00272323  3185
TJS-6                   
1 47613U 21010A   21319.60049477  .00000045  00000-0  00000-0 0  9997
2 47613   0.3404 282.2257 0002278 355.2782 172.0529  1.00272914  3042
SBIRS GEO-5 (USA 315)   
1 48618U 21042A   21319.35611611 -.00000091  00000-0  00000-0 0  9997
2 48618   7.7090 327.0505 0002535 241.0829 320.1053  1.00538099  1960
FENGYUN 4B              
1 48808U 21047A   21316.81855065 -.00000365  00000-0  00000-0 0  9998
2 48808   0.1360 286.4497 0002900 134.6527  48.9553  1.00258868  1754
SXM-8                   
1 48838U 21049A   21319.55741586 -.00000203  00000-0  00000-0 0  9990
2 48838   0.0894  97.8491 0001598 219.8272 212.6471  1.00269870  1834
TIANLIAN 1-05           
1 49011U 21063A   21319.57651667  .00000071  00000-0  00000-0 0  9994
2 49011   2.7020 285.5491 0004003 352.2289 355.2191  1.00272729  1287
